{
  "type": "FeatureCollection",
  "features": [
    {
      "type": "Feature",
      "properties": {
        "norad_id": 31185,
        "name": "FENGYUN 1C DEB",
        "group": "fengyun-1c-debris",
        "lat": -77.25898487216013,
        "lon": 112.85754723537438,
        "alt_km": 911.7272077811849,
        "timestamp": "2025-12-05T14:45:15.579807+00:00",
        "meta_object_name": "FENGYUN 1C DEB",
        "meta_object_id": "1999-025BJP",
        "meta_epoch": "2025-12-03T06:44:56.905152",
        "meta_mean_motion": 14.03019915,
        "meta_eccentricity": 0.0041359,
        "meta_inclination": 98.8321,
        "meta_ra_of_asc_node": 334.0356,
        "meta_arg_of_pericenter": 132.5488,
        "meta_mean_anomaly": 227.9182,
        "meta_ephemeris_type": 0,
        "meta_classification_type": "U",
        "meta_norad_cat_id": 31185,
        "meta_element_set_no": 999,
        "meta_rev_at_epoch": 62204,
        "meta_bstar": 0.0004459,
        "meta_mean_motion_dot": 6.55e-06,
        "meta_mean_motion_ddot": 0,
        "tle_line1": "1 31185U 99025BJP 25337.28121418  .00000655  00000+0  44590-3 0  9990",
        "tle_line2": "2 31185  98.8321 334.0356 0041359 132.5488 227.9182 14.03019915622046"
      },
      "geometry": {
        "type": "Point",
        "coordinates": [
          112.85754723537438,
          -77.25898487216013
        ]
      }
    },
    {
      "type": "Feature",
      "properties": {
        "norad_id": 31186,
        "name": "FENGYUN 1C DEB",
        "group": "fengyun-1c-debris",
        "lat": -10.953274231725478,
        "lon": 73.00475399251415,
        "alt_km": 859.9485486594813,
        "timestamp": "2025-12-05T14:45:15.579817+00:00",
        "meta_object_name": "FENGYUN 1C DEB",
        "meta_object_id": "1999-025BJQ",
        "meta_epoch": "2025-12-02T00:56:26.242368",
        "meta_mean_motion": 14.1287731,
        "meta_eccentricity": 0.00265333,
        "meta_inclination": 99.1774,
        "meta_ra_of_asc_node": 251.1349,
        "meta_arg_of_pericenter": 91.9141,
        "meta_mean_anomaly": 282.1326,
        "meta_ephemeris_type": 0,
        "meta_classification_type": "U",
        "meta_norad_cat_id": 31186,
        "meta_element_set_no": 999,
        "meta_rev_at_epoch": 95954,
        "meta_bstar": 0.0005366123,
        "meta_mean_motion_dot": 9.55e-06,
        "meta_mean_motion_ddot": 0,
        "tle_line1": "1 31186U 99025BJQ 25336.03919262  .00000955  00000+0  53661-3 0  9997",
        "tle_line2": "2 31186  99.1774 251.1349 0026533  91.9141 282.1326 14.12877310959547"
      },
      "geometry": {
        "type": "Point",
        "coordinates": [
          73.00475399251415,
          -10.953274231725478
        ]
      }
    },
    {
      "type": "Feature",
      "properties": {
        "norad_id": 31187,
        "name": "FENGYUN 1C DEB",
        "group": "fengyun-1c-debris",
        "lat": -19.231515785602998,
        "lon": -154.493289309678,
        "alt_km": 712.226028650065,
        "timestamp": "2025-12-05T14:45:15.579828+00:00",
        "meta_object_name": "FENGYUN 1C DEB",
        "meta_object_id": "1999-025BJR",
        "meta_epoch": "2025-12-04T09:12:55.501344",
        "meta_mean_motion": 14.58818498,
        "meta_eccentricity": 0.0221946,
        "meta_inclination": 99.2417,
        "meta_ra_of_asc_node": 200.8812,
        "meta_arg_of_pericenter": 249.2029,
        "meta_mean_anomaly": 108.5265,
        "meta_ephemeris_type": 0,
        "meta_classification_type": "U",
        "meta_norad_cat_id": 31187,
        "meta_element_set_no": 999,
        "meta_rev_at_epoch": 68978,
        "meta_bstar": 0.0080711,
        "meta_mean_motion_dot": 0.00053507,
        "meta_mean_motion_ddot": 0,
        "tle_line1": "1 31187U 99025BJR 25338.38397571  .00053507  00000+0  80711-2 0  9997",
        "tle_line2": "2 31187  99.2417 200.8812 0221946 249.2029 108.5265 14.58818498689788"
      },
      "geometry": {
        "type": "Point",
        "coordinates": [
          -154.493289309678,
          -19.231515785602998
        ]
      }
    },
    {
      "type": "Feature",
      "properties": {
        "norad_id": 31188,
        "name": "FENGYUN 1C DEB",
        "group": "fengyun-1c-debris",
        "lat": -41.34015414380864,
        "lon": 55.225158220067144,
        "alt_km": 790.4605141599386,
        "timestamp": "2025-12-05T14:45:15.579838+00:00",
        "meta_object_name": "FENGYUN 1C DEB",
        "meta_object_id": "1999-025BJS",
        "meta_epoch": "2025-12-03T22:42:56.325600",
        "meta_mean_motion": 14.23729706,
        "meta_eccentricity": 0.00594729,
        "meta_inclination": 98.7496,
        "meta_ra_of_asc_node": 45.7789,
        "meta_arg_of_pericenter": 274.9888,
        "meta_mean_anomaly": 136.787,
        "meta_ephemeris_type": 0,
        "meta_classification_type": "U",
        "meta_norad_cat_id": 31188,
        "meta_element_set_no": 999,
        "meta_rev_at_epoch": 96211,
        "meta_bstar": 0.0028543783,
        "meta_mean_motion_dot": 6.6e-05,
        "meta_mean_motion_ddot": 0,
        "tle_line1": "1 31188U 99025BJS 25337.94648525  .00006600  00000+0  28544-2 0  9995",
        "tle_line2": "2 31188  98.7496  45.7789 0059472 274.9888 136.7870 14.23729706962111"
      },
      "geometry": {
        "type": "Point",
        "coordinates": [
          55.225158220067144,
          -41.34015414380864
        ]
      }
    },
    {
      "type": "Feature",
      "properties": {
        "norad_id": 31190,
        "name": "FENGYUN 1C DEB",
        "group": "fengyun-1c-debris",
        "lat": -80.52759891911994,
        "lon": 61.06612692678872,
        "alt_km": 840.1734114585697,
        "timestamp": "2025-12-05T14:45:15.579848+00:00",
        "meta_object_name": "FENGYUN 1C DEB",
        "meta_object_id": "1999-025BJU",
        "meta_epoch": "2025-12-03T11:50:09.463776",
        "meta_mean_motion": 14.0356409,
        "meta_eccentricity": 0.00673436,
        "meta_inclination": 98.8192,
        "meta_ra_of_asc_node": 350.4986,
        "meta_arg_of_pericenter": 285.6327,
        "meta_mean_anomaly": 73.7416,
        "meta_ephemeris_type": 0,
        "meta_classification_type": "U",
        "meta_norad_cat_id": 31190,
        "meta_element_set_no": 999,
        "meta_rev_at_epoch": 95417,
        "meta_bstar": 0.00091096986,
        "meta_mean_motion_dot": 1.415e-05,
        "meta_mean_motion_ddot": 0,
        "tle_line1": "1 31190U 99025BJU 25337.49316509  .00001415  00000+0  91097-3 0  9995",
        "tle_line2": "2 31190  98.8192 350.4986 0067343 285.6327  73.7416 14.03564090954170"
      },
      "geometry": {
        "type": "Point",
        "coordinates": [
          61.06612692678872,
          -80.52759891911994
        ]
      }
    },
    {
      "type": "Feature",
      "properties": {
        "norad_id": 31191,
        "name": "FENGYUN 1C DEB",
        "group": "fengyun-1c-debris",
        "lat": -80.47709923543313,
        "lon": -52.53362790495853,
        "alt_km": 727.9005425254882,
        "timestamp": "2025-12-05T14:45:15.579858+00:00",
        "meta_object_name": "FENGYUN 1C DEB",
        "meta_object_id": "1999-025BJV",
        "meta_epoch": "2025-12-04T10:49:15.388320",
        "meta_mean_motion": 14.40761931,
        "meta_eccentricity": 0.0091939,
        "meta_inclination": 98.7823,
        "meta_ra_of_asc_node": 239.1188,
        "meta_arg_of_pericenter": 219.3514,
        "meta_mean_anomaly": 140.097,
        "meta_ephemeris_type": 0,
        "meta_classification_type": "U",
        "meta_norad_cat_id": 31191,
        "meta_element_set_no": 999,
        "meta_rev_at_epoch": 97893,
        "meta_bstar": 0.00073089,
        "meta_mean_motion_dot": 2.409e-05,
        "meta_mean_motion_ddot": 0,
        "tle_line1": "1 31191U 99025BJV 25338.45087255  .00002409  00000+0  73089-3 0  9991",
        "tle_line2": "2 31191  98.7823 239.1188 0091939 219.3514 140.0970 14.40761931978935"
      },
      "geometry": {
        "type": "Point",
        "coordinates": [
          -52.53362790495853,
          -80.47709923543313
        ]
      }
    },
    {
      "type": "Feature",
      "properties": {
        "norad_id": 31192,
        "name": "FENGYUN 1C DEB",
        "group": "fengyun-1c-debris",
        "lat": -37.716681945035226,
        "lon": -29.794285531870987,
        "alt_km": 1006.1801091002944,
        "timestamp": "2025-12-05T14:45:15.579868+00:00",
        "meta_object_name": "FENGYUN 1C DEB",
        "meta_object_id": "1999-025BJW",
        "meta_epoch": "2025-12-02T05:49:13.594080",
        "meta_mean_motion": 14.20933946,
        "meta_eccentricity": 0.0259415,
        "meta_inclination": 98.5525,
        "meta_ra_of_asc_node": 320.2543,
        "meta_arg_of_pericenter": 134.0886,
        "meta_mean_anomaly": 228.1965,
        "meta_ephemeris_type": 0,
        "meta_classification_type": "U",
        "meta_norad_cat_id": 31192,
        "meta_element_set_no": 999,
        "meta_rev_at_epoch": 96594,
        "meta_bstar": 0.00031822,
        "meta_mean_motion_dot": 9.23e-06,
        "meta_mean_motion_ddot": 0,
        "tle_line1": "1 31192U 99025BJW 25336.24251845  .00000923  00000+0  31822-3 0  9993",
        "tle_line2": "2 31192  98.5525 320.2543 0259415 134.0886 228.1965 14.20933946965944"
      },
      "geometry": {
        "type": "Point",
        "coordinates": [
          -29.794285531870987,
          -37.716681945035226
        ]
      }
    }
  ]
}